STARLING 4              
1 57386U 23100A   26066.02836485 -.00000009  00000+0  55676-5 0  9994
2 57386  99.5115  59.9711 0007803  83.0949 277.1159 15.06148396144525
STARLINK-35361          
1 65667U 25211R   26068.68350549  .00002950  00000+0  20860-3 0  9997
2 65667  97.6034 114.1032 0001643 109.8514 250.2890 15.05641040 27040
